{
    "links": {
        "self": "http://www.neowsapp.com/rest/v1/neo/3766123?api_key=iIulBulltgU6a56xZRHN4H3l9WmuAYTsLGpBGhQ2"
    },
    "id": "3766123",
    "neo_reference_id": "3766123",
    "name": "(2016 YN3)",
    "designation": "2016 YN3",
    "nasa_jpl_url": "http://ssd.jpl.nasa.gov/sbdb.cgi?sstr=3766123",
    "absolute_magnitude_h": 23.0,
    "estimated_diameter": {
        "kilometers": {
            "estimated_diameter_min": 0.0667659413,
            "estimated_diameter_max": 0.1492931834
        },
        "meters": {
            "estimated_diameter_min": 66.7659413495,
            "estimated_diameter_max": 149.2931834393
        },
        "miles": {
            "estimated_diameter_min": 0.0414864197,
            "estimated_diameter_max": 0.0927664547
        },
        "feet": {
            "estimated_diameter_min": 219.0483710172,
            "estimated_diameter_max": 489.807047955
        }
    },
    "is_potentially_hazardous_asteroid": false,
    "close_approach_data": [
        {
            "close_approach_date": "2016-12-21",
            "close_approach_date_full": "2016-Dec-21 19:35",
            "epoch_date_close_approach": 1482348900000,
            "relative_velocity": {
                "kilometers_per_second": "28.3929722117",
                "kilometers_per_hour": "102214.6999621434",
                "miles_per_hour": "63512.2395403663"
            },
            "miss_distance": {
                "astronomical": "0.1634167927",
                "lunar": "63.5691323603",
                "kilometers": "24446804.110151549",
                "miles": "15190539.6793634162"
            },
            "orbiting_body": "Earth"
        }
    ],
    "orbital_data": {
        "orbit_id": "4",
        "orbit_determination_date": "2017-04-06 08:21:21",
        "first_observation_date": "2016-12-24",
        "last_observation_date": "2016-12-31",
        "data_arc_in_days": 7,
        "observations_used": 24,
        "orbit_uncertainty": "9",
        "minimum_orbit_intersection": ".162856",
        "jupiter_tisserand_invariant": "3.683",
        "epoch_osculation": "2457748.5",
        "eccentricity": ".3818699728810392",
        "semi_major_axis": "1.705607264356332",
        "inclination": "53.28669183440658",
        "ascending_node_longitude": "272.2980860669379",
        "orbital_period": "813.6113200680671",
        "perihelion_distance": "1.054287064570876",
        "perihelion_argument": "133.626606286794",
        "aphelion_distance": "2.356927464141788",
        "perihelion_time": "2457701.030170605534",
        "mean_anomaly": "21.00405704849101",
        "mean_motion": ".4424717197517388",
        "equinox": "J2000",
        "orbit_class": {
            "orbit_class_type": "AMO",
            "orbit_class_description": "Near-Earth asteroid orbits similar to that of 1221 Amor",
            "orbit_class_range": "1.017 AU < q (perihelion) < 1.3 AU"
        }
    },
    "is_sentry_object": false
}